
STARLINK-3972           
1 52669U 22053P   25038.45880635  .00003890  00000+0  26238-3 0  9990
2 52669  53.2184 128.3794 0001372 100.9361 259.1785 15.08835407151375
STARLINK-4075           
1 52670U 22053Q   25038.94456818 -.00000815  00000+0 -33139-4 0  9993
2 52670  53.2170 126.2714 0001484 101.4841 258.6318 15.08840768151028
STARLINK-4071           
1 52671U 22053R   25038.45512145  .00003105  00000+0  21301-3 0  9996
2 52671  53.2170 128.3959 0001251  81.3518 278.7616 15.08856532151370
STARLINK-4073           
1 52672U 22053S   25038.92983204  .00001046  00000+0  83766-4 0  9993
2 52672  53.2178 126.2653 0001017  83.7260 276.3848 15.08854473151022
STARLINK-3976           
1 52673U 22053T   25038.44776168  .00001269  00000+0  97767-4 0  9993
2 52673  53.2138 128.4259 0001384  97.7963 262.3186 15.08851366151373
STARLINK-3936           
1 52674U 22053U   25038.92615984 -.00000383  00000+0 -59558-5 0  9990
2 52674  53.2188 126.2806 0001472  90.7793 269.3367 15.08838873151023
STARLINK-3934           
1 52675U 22053V   25038.90866871  .00001088  00000+0  86429-4 0  9999
2 52675  53.2166 116.3641 0001573  97.3595 262.7576 15.08846053151143
STARLINK-4006           
1 52676U 22053W   25038.45144336  .00009170  00000+0  59346-3 0  9992
2 52676  53.2175 128.4102 0000470  41.6391 318.4637 15.08841182151371
STARLINK-4028           
1 52677U 22053X   25038.90131698  .00000348  00000+0  39939-4 0  9995
2 52677  53.2177 116.3917 0001288  96.1870 263.9268 15.08841868151149
STARLINK-4074           
1 52678U 22053Y   25038.91973630 -.00000665  00000+0 -23717-4 0  9998
2 52678  53.2169 116.4191 0001253  93.5174 266.5961 15.08838883151148
STARLINK-4031           
1 52679U 22053Z   25038.42660373  .00003014  00000+0  20738-3 0  9990
2 52679  53.2153 118.5228 0001410  80.5834 279.5317 15.08835337151465
STARLINK-3774           
1 52680U 22053AA  25038.41921342 -.00002685  00000+0 -15074-3 0  9999
2 52680  53.2173 118.3272 0001656  86.3770 273.7412 15.08827031151487
STARLINK-4068           
1 52681U 22053AB  25038.42292977 -.00004664  00000+0 -27507-3 0  9999
2 52681  53.2177 118.5406 0001713  86.4684 273.6504 15.08847232151466
STARLINK-4017           
1 52682U 22053AC  25038.43396681 -.00002099  00000+0 -11382-3 0  9992
2 52682  53.2180 118.4897 0001486 108.2143 251.9011 15.08845113151484
STARLINK-4014           
1 52684U 22053AE  25038.36404563 -.00000466  00000+0 -11176-4 0  9993
2 52684  53.2168 118.8034 0001368  94.8756 265.2392 15.08844887151452
STARLINK-4029           
1 52685U 22053AF  25038.93811926 -.00000948  00000+0 -41453-4 0  9998
2 52685  53.2169 116.2310 0001343  87.0939 273.0207 15.08841715151159
STARLINK-4005           
1 52686U 22053AG  25038.90967565  .00000497  00000+0  49334-4 0  9990
2 52686  53.2171 116.6355 0001309  92.2027 267.9115 15.08836801151143
STARLINK-3981           
1 52687U 22053AH  25038.47077455 -.00001236  00000+0 -59566-4 0  9995
2 52687  53.2167 118.3250 0001139  67.7683 292.3430 15.08839667151457
STARLINK-4032           
1 52688U 22053AJ  25038.46707292  .00000545  00000+0  52356-4 0  9994
2 52688  53.2182 118.2287 0001817  58.0173 302.0996 15.08833926151452
STARLINK-4078           
1 52689U 22053AK  25038.45098987  .00012734  00000+0  79458-3 0  9992
2 52689  53.2157 118.3242 0002384  49.1794 310.9405 15.09850166151489
STARLINK-4035           
1 52690U 22053AL  25038.94179511 -.00003393  00000+0 -19512-3 0  9999
2 52690  53.2178 116.2130 0001302  89.9127 270.2015 15.08855396151156
STARLINK-3993           
1 52692U 22053AN  25038.90496732  .00001145  00000+0  90038-4 0  9998
2 52692  53.2182 116.1058 0001343  88.3968 271.7178 15.08841195151150
STARLINK-3946           
1 52693U 22053AP  25038.44868656 -.00000135  00000+0  95932-5 0  9994
2 52693  53.2173 118.4248 0001271  92.5507 267.5631 15.08836446151489
STARLINK-4072           
1 52694U 22053AQ  25038.46340399  .00000415  00000+0  44176-4 0  9999
2 52694  53.2176 118.3638 0001521  97.9361 262.1804 15.08836744151484
STARLINK-4041           
1 52695U 22053AR  25038.43531866  .00000071  00000+0  22534-4 0  9990
2 52695  53.2179 123.2832 0001454  95.7219 264.3939 15.08837894151426
STARLINK-4018           
1 52697U 22053AT  25038.92573868  .00000881  00000+0  73436-4 0  9990
2 52697  53.2174 121.2844 0001341  84.3302 275.7843 15.08840600151087
STARLINK-4030           
1 52698U 22053AU  25039.20078374 -.00001048  00000+0 -47784-4 0  9990
2 52698  53.2166 120.0402 0001417  90.0801 270.0354 15.08844516151128
STARLINK-3987           
1 52699U 22053AV  25038.45099062 -.00000595  00000+0 -19305-4 0  9998
2 52699  53.2170 113.4468 0001381  94.5580 265.5570 15.08834390151572
STARLINK-4034           
1 52700U 22053AW  25038.43161299 -.00001689  00000+0 -88026-4 0  9992
2 52700  53.2183 123.1483 0001706  90.1670 269.9517 15.08854599151423
STARLINK-4033           
1 52702U 22053AY  25038.46110960 -.00001533  00000+0 -78264-4 0  9997
2 52702  53.2169 123.3962 0001357  98.4366 261.6780 15.08845997151421
STARLINK-4020           
1 52703U 22053AZ  25039.14872194 -.00044114  00000+0 -27582-2 0  9995
2 52703  53.2191 105.2959 0002258  63.0029 297.1194 15.09003181151321
STARLINK-3999           
1 52704U 22053BA  25038.89854283  .00000872  00000+0  72841-4 0  9997
2 52704  53.2174 106.4039 0001466  81.0503 279.0655 15.08867852151280
STARLINK-3844           
1 52705U 22053BB  25038.88752686  .00002282  00000+0  16149-3 0  9996
2 52705  53.2176 106.4574 0001830 107.2808 252.8384 15.08828351151280
STARLINK-3970           
1 52706U 22053BC  25038.42752454  .00005284  00000+0  34986-3 0  9994
2 52706  53.2163 108.5167 0001576 110.8382 249.2779 15.08835135151648
STARLINK-4007           
1 52707U 22053BD  25038.47166292 -.00001114  00000+0 -51951-4 0  9991
2 52707  53.2173 108.2066 0001307 107.8100 252.3034 15.08834933151713
STARLINK-3962           
1 52708U 22053BE  25038.44960278  .00000470  00000+0  47603-4 0  9996
2 52708  53.2168 108.4131 0001477  89.6188 270.4974 15.08839940151856
COSMOS 2556             
1 52713U 22054A   25039.19079928  .00008517  00000+0  31628-3 0  9998
2 52713  97.5796 336.2350 0012596  94.2999 265.9680 15.27746131151448
2022-056B               
1 52717U 22056B   25039.15917375  .00000039  00000+0  51397-4 0  9994
2 52717  86.0048 290.6600 0043698 306.2305  53.4795 13.29595791132664
GHGSAT-C3               
1 52737U 22057F   25039.14763160  .00009607  00000+0  37947-3 0  9991
2 52737  97.5934 166.5864 0008120  68.5035 291.7067 15.25702614149983
CONNECTA T1.1           
1 52739U 22057H   25038.94003939  .00033324  00000+0  79478-3 0  9999
2 52739  97.5954 172.4560 0005994  48.9113 311.2649 15.41475610150315
GHGSAT-C5               
1 52744U 22057N   25039.12131046  .00009459  00000+0  37320-3 0  9999
2 52744  97.6017 167.5535 0009172  65.2565 294.9627 15.25736778149985
GHGSAT-C4               
1 52746U 22057Q   25039.16735580  .00009511  00000+0  37562-3 0  9995
2 52746  97.5866 165.9135 0008271  55.8719 304.3302 15.25706637149999
NUSAT-28 (ALICE LEE)    
1 52747U 22057R   25039.18432970  .00029553  00000+0  86791-3 0  9991
2 52747  97.4768 165.7419 0007606 326.3998  33.6761 15.35066062150770
CARCARA 1 (ICEYE-X18)   
1 52749U 22057T   25039.15863323  .00256594  00000+0  18023-2 0  9999
2 52749  97.5647 176.6369 0008191 312.9151  47.1425 15.73373544150704
NUSAT-31 (RUBY PAYNE-S) 
1 52752U 22057W   25038.58349435  .00039938  00000+0  90475-3 0  9995
2 52752  97.6139 176.8060 0007345 358.6989   1.4238 15.42974516150584
HAWK-5C                 
1 52754U 22057Y   25038.93187153  .00013631  00000+0  43814-3 0  9990
2 52754  97.5977 171.3693 0007467  47.6206 312.5666 15.32365402150206
HAWK-5B                 
1 52756U 22057AA  25038.93175789  .00015109  00000+0  48513-3 0  9997
2 52756  97.5963 169.7948 0007923  42.9378 317.2481 15.32371301150204
HAWK-5A                 
1 52757U 22057AB  25038.93152657  .00015523  00000+0  49829-3 0  9998
2 52757  97.5969 170.5775 0008266  44.5321 315.6583 15.32371371150208
CARCARA 2 (ICEYE-X19)   
1 52758U 22057AC  25039.15916430  .00334737  00000+0  15731-2 0  9996
2 52758  97.5566 180.8486 0012785 295.5171  64.4775 15.82175143150955
ICEYE-X20               
1 52759U 22057AD  25039.12965069  .00041714  00000+0  56246-3 0  9993
2 52759  97.5857 184.6349 0005634 347.4281  12.6833 15.57690108151173
VIGORIDE-3              
1 52760U 22057AE  25038.93211307  .00005429  00000+0  24559-3 0  9997
2 52760  97.5952 165.3133 0011044  56.0482 304.1801 15.21294518149870
ION SCV-006             
1 52761U 22057AF  25038.92821962  .00013107  00000+0  42828-3 0  9992
2 52761  97.5460 166.1361 0024812  85.0354 275.3719 15.31566580150123
ICEYE-X17               
1 52762U 22057AG  25039.17752479  .00048752  00000+0  93296-3 0  9996
2 52762  97.5752 175.8885 0009114 359.1122   1.0110 15.47871894150620
SHERPA-AC1              
1 52763U 22057AH  25038.90399009  .00010147  00000+0  38817-3 0  9998
2 52763  97.5999 168.2860 0010265  45.7262 314.4817 15.26735037150041
NUSAT-29 (EDITH CLARKE) 
1 52764U 22057AJ  25039.14292870  .00043065  00000+0  96553-3 0  9990
2 52764  97.4684 166.6935 0005733 300.5148  59.5533 15.43277221150919
ARMSAT1 URDANETA        
1 52765U 22057AK  25039.18778622  .00029556  00000+0  55504-3 0  9999
2 52765  97.5975 180.8650 0006667   0.4894 359.6361 15.48544381150874
VARISAT 1C & CELESTIS-21
1 52766U 22057AL  25038.88154911  .00066712  00000+0  94326-3 0  9995
2 52766  97.5969 179.9444 0006213 353.3348   6.7822 15.56295171150779
PLATFORM-1              
1 52770U 22057AQ  25038.94843261  .00023820  00000+0  54551-3 0  9999
2 52770  97.5929 175.9529 0007496  16.4994 343.6495 15.42755184150586
